FLOCK 4G-5              
1 62663U 25009BG  26068.45638436  .00011278  00000+0  40688-3 0  9997
2 62663  97.4058 151.2478 0002094 314.5072  45.5996 15.28679529 63699
STARLINK-34132          
1 64086U 25107Y   26068.39729572  .00037658  00000+0  13698-2 0  9992
2 64086  42.9988 203.3747 0003278 293.6744  66.3764 15.27605260 46047
